#dP2025  2  2 18  0  0.00000000      96 __u+U IGS20 EXT  IAC
## 2352  64800.00000000   900.00000000 60708 0.7500000000000
+   51   G01G02G03G04G05G06G07G08G09G10G11G12G13G14G15G16G17
+        G18G19G20G21G22G23G24G25G26G27G28G29G30G31G32R01R02
+        R03R04R05R07R08R09R11R12R14R15R16R17R18R20R21R22R24
+          0  0  0  0  0  0  0  0  0  0  0  0  0  0  0  0  0
+          0  0  0  0  0  0  0  0  0  0  0  0  0  0  0  0  0
++         7  7  7  6  7  6  6  7  7  6  7  6  8  6  6  6  6
++         8  6  8  7  7  7  6  6  7  7  7  7  7  7  7  8  8
++         8  8  9  8  8  7  8  6  8  9  9  7  7  7  7  6 10
++         0  0  0  0  0  0  0  0  0  0  0  0  0  0  0  0  0
++         0  0  0  0  0  0  0  0  0  0  0  0  0  0  0  0  0
%c M  cc GPS ccc cccc cccc cccc cccc ccccc ccccc ccccc ccccc
%c cc cc ccc ccc cccc cccc cccc cccc ccccc ccccc ccccc ccccc
%f  0.0000000  0.000000000  0.00000000000  0.000000000000000
%f  0.0000000  0.000000000  0.00000000000  0.000000000000000
%i    0    0    0    0      0      0      0      0         0
%i    0    0    0    0      0      0      0      0         0
/* IAC                                ULTRA-RAPID PREDICTION
/* S/V CLOCKS ARE ALIGNED TO GNSS TIME                      
/* G:C1WC2W R:C1PC2P E:C1XC5X C:C2IC6I J:C1CC2S             
/* PCV:IGS20_2350 OL/AL:FES2004  NONE     YN ORB:CoN CLK:CoN
*  2025 02 03  6  0  0.00000000
PG01 -15256.772676  21450.227129  -3502.605013     95.883142
PG02 -14164.576948  22199.344782    795.701638   -252.284723
PG03 -11103.770041  12496.906872 -20773.042263    657.448239
PG04  -3263.944522  21083.961047 -15699.114834    521.615371
PG05  23236.056886  -6176.427153  11187.821476   -200.879011
PG06  14347.050643   4788.052046 -21779.159776   -162.403481
PG07  -1707.524869  21446.111078  15821.725138    -13.489105
PG08 -10854.279130  11900.876707  20907.171546    473.322576
PG09   5279.484381  24693.937515  -8215.502768    553.140441
PG10 -21435.992569 -10543.347873  12193.524190   -303.220180
PG11  19746.115223  -6276.831259 -16542.922273   -749.258352
PG12  14121.899686 -11425.662388 -19655.800934   -568.101053
PG13  14759.204733  -2158.511979  21753.148985    695.383584
PG14  18425.283946  12898.719119  14363.966251    591.769018
PG15   8754.087386 -13903.149843  20324.197791    259.092458
PG16 -25938.741367   -622.292810   6329.880836    -62.208189
PG17  12827.117578  22149.498712  -6260.735154    444.089482
PG18    732.495260 -20181.624217  17163.114775   -655.087939
PG19  16020.569074  15030.175467 -15373.315662    593.683795
PG20  26440.823289  -1076.525478  -1170.281683    366.580325
PG21 -17006.529203  18294.005162   7468.982967    101.880706
PG22  22957.315329  10464.182370   8154.774524    -95.367104
PG23  -8136.260245 -14575.657665  20761.030442    416.314763
PG24  14370.792389 -21968.607001   1716.043919   -456.669977
PG25   -178.962147 -15707.215127 -21790.885268    495.673307
PG26 -26065.133738  -4087.227678  -4722.232444    -74.856591
PG27 -16315.458959   -771.775521  20712.091321    -32.117761
PG28 -13743.953481  -6749.318491 -21716.166493   -550.903919
PG29  -2947.395617 -25078.606342  -8078.159418   -541.270262
PG30   8713.584353  14127.671500  20845.753518   -224.799349
PG31 -18574.114272   1758.057827 -19283.775157   -216.405591
PG32 -16244.131425 -18180.545880 -10546.876573   -529.317525
PR01  19512.098425  15488.589868   5517.545021    113.434550
PR02  15920.270261   3685.243717  19610.538235    -37.814117
PR03   3628.988891 -11424.659689  22576.119147    116.130101
PR04  -9968.262703 -19476.617796  13161.929772    275.488943
PR05 -18332.855016 -17446.501965  -3281.033659    144.779270
PR07  -3446.513124  11528.270501 -22438.257593    100.079120
PR08  10362.084673  19435.462639 -12768.622224     -6.241732
PR09 -24657.824062   6053.745798  -1919.017462    235.781261
PR11  -2020.734424  11623.184644  22618.766963     -5.885231
PR12  17768.233293   4326.610760  17793.229143     50.349837
PR14  17402.604456 -11828.719685 -14428.536002     27.686372
PR15     59.696624 -11357.713203 -22828.882488     71.565075
PR16 -17628.938665  -4238.052217 -17923.693159     33.010128
PR17   9991.711861 -22363.658397  -7045.608712    162.971441
PR18   2884.940611 -23598.158100   9337.390955    185.138419
PR20 -12467.870561   7067.994241  21100.539986   -125.322659
PR21 -10616.030048  21641.856118   8377.614788   -173.549103
PR22  -2498.430597  23140.970309 -10390.737650    -58.960262
PR24  12559.112291  -8103.665600 -20647.325686    -90.864856
*  2025 02 03  6 15  0.00000000
PG01 -15607.407678  21474.341254   -661.074383     95.906605
PG02 -14294.770731  21886.404290   3672.158521   -252.276308
PG03 -13360.438813  12231.867538 -19546.236480    657.454003
PG04  -4176.759221  19397.537187 -17558.612252    521.620439
PG05  24382.563906  -5951.820934   8620.137646   -200.879961
PG06  12900.458542   6849.570791 -22118.231745   -162.426496
PG07  -2807.551444  22662.358733  13721.313646    -13.489343
PG08 -12062.300981   9758.659976  21387.690098    473.328953
PG09   4581.917483  23840.223055 -10787.868681    553.153159
PG10 -19954.505715 -10540.329148  14505.415264   -303.234057
PG11  18661.586824  -4590.101659 -18267.095993   -749.256660
PG12  16195.669802 -10997.071066 -18223.972260   -568.102952
PG13  15488.540315    245.556609  21373.863137    695.384506
PG14  16670.367148  12926.450251  16331.351877    591.775225
PG15  10228.595005 -11911.826699  20890.802035    259.096437
PG16 -26495.554432   -939.222758   3576.607796    -62.199885
PG17  12817.149629  22807.118355  -3456.531754    444.072919
PG18   1935.570184 -21598.969734  15211.180114   -655.086184
PG19  16412.847210  16588.064947 -13224.146266    593.687741
PG20  26164.226804   -770.984470  -4005.126006    366.580063
PG21 -16794.590866  17275.622697  10138.510325    101.880757
PG22  21888.621135  10536.963349  10740.810159    -95.368603
PG23  -5734.096316 -14499.303515  21581.991139    416.321378
PG24  14491.268509 -21433.007484   4510.980517   -456.665836
PG25   2235.421861 -15559.503377 -21759.224378    495.672698
PG26 -25401.922606  -4392.764570  -7378.082198    -74.871246
PG27 -17294.572382  -2931.705414  19755.466060    -32.117182
PG28 -12407.998448  -8844.509905 -21768.021730   -550.911907
PG29  -2353.354296 -24162.210161 -10675.915221   -541.267083
PG30   7321.802722  15985.857266  19991.254690   -224.791591
PG31 -17356.627333    -96.729769 -20445.568074   -216.404785
PG32 -16531.097228 -19246.787241  -7967.463063   -529.310701
PR01  19971.540701  15704.917327   2351.032271    113.435750
PR02  17618.511338   5233.585640  17703.357695    -37.813746
PR03   5616.423693  -9446.124087  23074.235293    116.130635
PR04  -8815.657218 -18118.930990  15686.201838    275.490560
PR05 -18612.147819 -17462.263176    -61.161084    144.779771
PR07  -5441.402191   9541.585972 -22972.787999    100.079813
PR08   9204.244147  18120.859265 -15323.564472     -6.241638
PR09 -24219.404245   6000.133562  -5071.057503    235.783182
PR11  -4638.761640  12429.147664  21787.984874     -5.888109
PR12  15530.446126   4891.164509  19647.113340     50.350235
PR14  18926.182019 -12382.884806 -11810.380226     27.686422
PR15   2728.612695 -12148.345836 -22252.407351     71.564766
PR16 -15369.671690  -4804.656504 -19768.291234     33.010492
PR17   9560.015776 -21382.578609 -10048.878165    162.974120
PR18   2953.251869 -24576.753173   6293.175733    185.140137
PR20 -11598.016297   4533.800091  22265.561048   -125.323123
PR21 -10124.522246  20516.372251  11305.265166   -173.551756
PR22  -2685.767357  24237.206707  -7430.265294    -58.961845
PR24  11850.579309  -5571.979815 -21868.175229    -90.866325
EOF
